{"type": "FeatureCollection", "features": [ {"type": "Feature", "properties": {"norad_id": 34077, "name": "IRIDIUM 33 DEB", "group": "iridium-33-debris", "lat": 85.46904546231681, "lon": 107.37386045569657, "alt_km": 663.8082812121638, "timestamp": "2025-12-05T22:40:48.934658+00:00", "meta": {"OBJECT_NAME": "IRIDIUM 33 DEB", "OBJECT_ID": "1997-051CL", "EPOCH": "2025-12-05T04:31:02.326368", "MEAN_MOTION": 14.64651198, "ECCENTRICITY": 0.00108445, "INCLINATION": 86.3871, "RA_OF_ASC_NODE": 54.8335, "ARG_OF_PERICENTER": 63.1605, "MEAN_ANOMALY": 356.2545, "EPHEMERIS_TYPE": 0, "CLASSIFICATION_TYPE": "U", "NORAD_CAT_ID": 34077, "ELEMENT_SET_NO": 999, "REV_AT_EPOCH": 88222, "BSTAR": 0.0034104221, "MEAN_MOTION_DOT": 0.00018195, "MEAN_MOTION_DDOT": 0}, "tle": {"line1": "1 34077U 97051CL  25339.18822137  .00018195  00000+0  34104-2 0  9994", "line2": "2 34077  86.3871  54.8335 0010844  63.1605 356.2545 14.64651198882229"}}, "geometry": {"type": "Point", "coordinates": [107.37386045569657, 85.46904546231681]}}, {"type": "Feature", "properties": {"norad_id": 34079, "name": "IRIDIUM 33 DEB", "group": "iridium-33-debris", "lat": -16.21042493921368, "lon": 10.696720805608704, "alt_km": 620.8143918435226, "timestamp": "2025-12-05T22:40:48.934668+00:00", "meta": {"OBJECT_NAME": "IRIDIUM 33 DEB", "OBJECT_ID": "1997-051CN", "EPOCH": "2025-12-05T06:56:17.293920", "MEAN_MOTION": 14.83236119, "ECCENTRICITY": 0.0006424, "INCLINATION": 86.3773, "RA_OF_ASC_NODE": 12.0502, "ARG_OF_PERICENTER": 31.2199, "MEAN_ANOMALY": 52.5956, "EPHEMERIS_TYPE": 0, "CLASSIFICATION_TYPE": "U", "NORAD_CAT_ID": 34079, "ELEMENT_SET_NO": 999, "REV_AT_EPOCH": 88867, "BSTAR": 0.0028000599, "MEAN_MOTION_DOT": 0.00022961, "MEAN_MOTION_DDOT": 0}, "tle": {"line1": "1 34079U 97051CN  25339.28908905  .00022961  00000+0  28001-2 0  9990", "line2": "2 34079  86.3773  12.0502 0006424  31.2199  52.5956 14.83236119888677"}}, "geometry": {"type": "Point", "coordinates": [10.696720805608704, -16.21042493921368]}}, {"type": "Feature", "properties": {"norad_id": 34088, "name": "IRIDIUM 33 DEB", "group": "iridium-33-debris", "lat": -66.03929902373918, "lon": -137.97751645786508, "alt_km": 599.8407312078607, "timestamp": "2025-12-05T22:40:48.934680+00:00", "meta": {"OBJECT_NAME": "IRIDIUM 33 DEB", "OBJECT_ID": "1997-051CX", "EPOCH": "2025-12-05T04:05:51.557568", "MEAN_MOTION": 14.9082378, "ECCENTRICITY": 0.00051614, "INCLINATION": 86.3855, "RA_OF_ASC_NODE": 34.2004, "ARG_OF_PERICENTER": 205.4288, "MEAN_ANOMALY": 207.9213, "EPHEMERIS_TYPE": 0, "CLASSIFICATION_TYPE": "U", "NORAD_CAT_ID": 34088, "ELEMENT_SET_NO": 999, "REV_AT_EPOCH": 88629, "BSTAR": 0.0051676027, "MEAN_MOTION_DOT": 0.00051194, "MEAN_MOTION_DDOT": 0}, "tle": {"line1": "1 34088U 97051CX  25339.17073562  .00051194  00000+0  51676-2 0  9994", "line2": "2 34088  86.3855  34.2004 0005161 205.4288 207.9213 14.90823780886294"}}, "geometry": {"type": "Point", "coordinates": [-137.97751645786508, -66.03929902373918]}}, {"type": "Feature", "properties": {"norad_id": 34091, "name": "IRIDIUM 33 DEB", "group": "iridium-33-debris", "lat": -51.047508340811476, "lon": 65.40572739200157, "alt_km": 610.2545534378069, "timestamp": "2025-12-05T22:40:48.934691+00:00", "meta": {"OBJECT_NAME": "IRIDIUM 33 DEB", "OBJECT_ID": "1997-051DA", "EPOCH": "2025-12-05T06:41:37.054176", "MEAN_MOTION": 14.80945261, "ECCENTRICITY": 0.00330143, "INCLINATION": 86.3426, "RA_OF_ASC_NODE": 70.2484, "ARG_OF_PERICENTER": 320.2388, "MEAN_ANOMALY": 39.6413, "EPHEMERIS_TYPE": 0, "CLASSIFICATION_TYPE": "U", "NORAD_CAT_ID": 34091, "ELEMENT_SET_NO": 999, "REV_AT_EPOCH": 87756, "BSTAR": 0.0089040101, "MEAN_MOTION_DOT": 0.00070148, "MEAN_MOTION_DDOT": 0}, "tle": {"line1": "1 34091U 97051DA  25339.27890109  .00070148  00000+0  89040-2 0  9999", "line2": "2 34091  86.3426  70.2484 0033014 320.2388  39.6413 14.80945261877569"}}, "geometry": {"type": "Point", "coordinates": [65.40572739200157, -51.047508340811476]}}, {"type": "Feature", "properties": {"norad_id": 34097, "name": "IRIDIUM 33 DEB", "group": "iridium-33-debris", "lat": -76.14804140116979, "lon": -159.95746835717094, "alt_km": 819.6452019856506, "timestamp": "2025-12-05T22:40:48.934701+00:00", "meta": {"OBJECT_NAME": "IRIDIUM 33 DEB", "OBJECT_ID": "1997-051DG", "EPOCH": "2025-12-04T12:00:30.087072", "MEAN_MOTION": 14.34680478, "ECCENTRICITY": 0.008354, "INCLINATION": 86.2003, "RA_OF_ASC_NODE": 5.0446, "ARG_OF_PERICENTER": 28.9801, "MEAN_ANOMALY": 331.5995, "EPHEMERIS_TYPE": 0, "CLASSIFICATION_TYPE": "U", "NORAD_CAT_ID": 34097, "ELEMENT_SET_NO": 999, "REV_AT_EPOCH": 87001, "BSTAR": 0.0028898, "MEAN_MOTION_DOT": 8.526e-05, "MEAN_MOTION_DDOT": 0}, "tle": {"line1": "1 34097U 97051DG  25338.50034823  .00008526  00000+0  28898-2 0  9998", "line2": "2 34097  86.2003   5.0446 0083540  28.9801 331.5995 14.34680478870017"}}, "geometry": {"type": "Point", "coordinates": [-159.95746835717094, -76.14804140116979]}}, {"type": "Feature", "properties": {"norad_id": 34145, "name": "IRIDIUM 33 DEB", "group": "iridium-33-debris", "lat": -17.47872920984758, "lon": -25.642800690054653, "alt_km": 782.9006293052089, "timestamp": "2025-12-05T22:40:48.934712+00:00", "meta": {"OBJECT_NAME": "IRIDIUM 33 DEB", "OBJECT_ID": "1997-051DY", "EPOCH": "2025-12-05T04:26:41.563392", "MEAN_MOTION": 14.42206288, "ECCENTRICITY": 0.00554127, "INCLINATION": 86.2108, "RA_OF_ASC_NODE": 335.8913, "ARG_OF_PERICENTER": 117.8237, "MEAN_ANOMALY": 242.8595, "EPHEMERIS_TYPE": 0, "CLASSIFICATION_TYPE": "U", "NORAD_CAT_ID": 34145, "ELEMENT_SET_NO": 999, "REV_AT_EPOCH": 87529, "BSTAR": 0.0019340372, "MEAN_MOTION_DOT": 6.509e-05, "MEAN_MOTION_DDOT": 0}, "tle": {"line1": "1 34145U 97051DY  25339.18520328  .00006509  00000+0  19340-2 0  9998", "line2": "2 34145  86.2108 335.8913 0055412 117.8237 242.8595 14.42206288875295"}}, "geometry": {"type": "Point", "coordinates": [-25.642800690054653, -17.47872920984758]}}, {"type": "Feature", "properties": {"norad_id": 34146, "name": "IRIDIUM 33 DEB", "group": "iridium-33-debris", "lat": 4.532849951084751, "lon": 172.50737012751298, "alt_km": 725.5550673582457, "timestamp": "2025-12-05T22:40:48.934723+00:00", "meta": {"OBJECT_NAME": "IRIDIUM 33 DEB", "OBJECT_ID": "1997-051DZ", "EPOCH": "2025-12-05T02:15:54.786240", "MEAN_MOTION": 14.48966521, "ECCENTRICITY": 0.00250306, "INCLINATION": 86.2833, "RA_OF_ASC_NODE": 353.1782, "ARG_OF_PERICENTER": 248.9862, "MEAN_ANOMALY": 172.3351, "EPHEMERIS_TYPE": 0, "CLASSIFICATION_TYPE": "U", "NORAD_CAT_ID": 34146, "ELEMENT_SET_NO": 999, "REV_AT_EPOCH": 87996, "BSTAR": 0.0020615973, "MEAN_MOTION_DOT": 7.863e-05, "MEAN_MOTION_DDOT": 0}, "tle": {"line1": "1 34146U 97051DZ  25339.09438410  .00007863  00000+0  20616-2 0  9991", "line2": "2 34146  86.2833 353.1782 0025030 248.9862 172.3351 14.48966521879965"}}, "geometry": {"type": "Point", "coordinates": [172.50737012751298, 4.532849951084751]}}, {"type": "Feature", "properties": {"norad_id": 34159, "name": "IRIDIUM 33 DEB", "group": "iridium-33-debris", "lat": 32.21579297732534, "lon": -131.16574226318204, "alt_km": 779.856711277771, "timestamp": "2025-12-05T22:40:48.934734+00:00", "meta": {"OBJECT_NAME": "IRIDIUM 33 DEB", "OBJECT_ID": "1997-051EN", "EPOCH": "2025-12-05T05:17:59.452800", "MEAN_MOTION": 14.38465082, "ECCENTRICITY": 0.00263292, "INCLINATION": 86.3516, "RA_OF_ASC_NODE": 51.447, "ARG_OF_PERICENTER": 314.2734, "MEAN_ANOMALY": 45.6304, "EPHEMERIS_TYPE": 0, "CLASSIFICATION_TYPE": "U", "NORAD_CAT_ID": 34159, "ELEMENT_SET_NO": 999, "REV_AT_EPOCH": 87851, "BSTAR": 0.00075268064, "MEAN_MOTION_DOT": 2.325e-05, "MEAN_MOTION_DDOT": 0}, "tle": {"line1": "1 34159U 97051EN  25339.22082700  .00002325  00000+0  75268-3 0  9999", "line2": "2 34159  86.3516  51.4470 0026329 314.2734  45.6304 14.38465082878512"}}, "geometry": {"type": "Point", "coordinates": [-131.16574226318204, 32.21579297732534]}}, {"type": "Feature", "properties": {"norad_id": 34350, "name": "IRIDIUM 33 DEB", "group": "iridium-33-debris", "lat": 7.810285373164982, "lon": 6.2605423628350945, "alt_km": 756.2115956141342, "timestamp": "2025-12-05T22:40:48.934745+00:00", "meta": {"OBJECT_NAME": "IRIDIUM 33 DEB", "OBJECT_ID": "1997-051ES", "EPOCH": "2025-12-05T07:45:28.239264", "MEAN_MOTION": 14.45361174, "ECCENTRICITY": 0.002206, "INCLINATION": 86.3281, "RA_OF_ASC_NODE": 6.0255, "ARG_OF_PERICENTER": 158.535, "MEAN_ANOMALY": 216.3605, "EPHEMERIS_TYPE": 0, "CLASSIFICATION_TYPE": "U", "NORAD_CAT_ID": 34350, "ELEMENT_SET_NO": 999, "REV_AT_EPOCH": 88186, "BSTAR": 0.00056308395, "MEAN_MOTION_DOT": 2.004e-05, "MEAN_MOTION_DDOT": 0}, "tle": {"line1": "1 34350U 97051ES  25339.32324351  .00002004  00000+0  56308-3 0  9992", "line2": "2 34350  86.3281   6.0255 0022060 158.5350 216.3605 14.45361174881860"}}, "geometry": {"type": "Point", "coordinates": [6.2605423628350945, 7.810285373164982]}}, {"type": "Feature", "properties": {"norad_id": 34366, "name": "IRIDIUM 33 DEB", "group": "iridium-33-debris", "lat": 54.81296600463023, "lon": -132.89687955793138, "alt_km": 695.0825610464299, "timestamp": "2025-12-05T22:40:48.934755+00:00", "meta": {"OBJECT_NAME": "IRIDIUM 33 DEB", "OBJECT_ID": "1997-051FJ", "EPOCH": "2025-12-05T04:14:06.802368", "MEAN_MOTION": 14.53950482, "ECCENTRICITY": 0.0021906, "INCLINATION": 86.3706, "RA_OF_ASC_NODE": 52.6019, "ARG_OF_PERICENTER": 163.8251, "MEAN_ANOMALY": 261.1241, "EPHEMERIS_TYPE": 0, "CLASSIFICATION_TYPE": "U", "NORAD_CAT_ID": 34366, "ELEMENT_SET_NO": 999, "REV_AT_EPOCH": 88072, "BSTAR": 0.0024311483, "MEAN_MOTION_DOT": 0.00010293, "MEAN_MOTION_DDOT": 0}, "tle": {"line1": "1 34366U 97051FJ  25339.17646762  .00010293  00000+0  24311-2 0  9992", "line2": "2 34366  86.3706  52.6019 0021906 163.8251 261.1241 14.53950482880724"}}, "geometry": {"type": "Point", "coordinates": [-132.89687955793138, 54.81296600463023]}}]}